CYGFM04                 
1 41885U 16078B   24343.91003417  .00020030  00000+0  57880-3 0  9994
2 41885  34.9375 252.2358 0009413 358.6299   1.4391 15.34695201442964
CYGFM02                 
1 41886U 16078C   24343.88746963  .00020935  00000+0  59079-3 0  9997
2 41886  34.9455 254.0659 0011929 351.9145   8.1379 15.35401047443054
CYGFM01                 
1 41887U 16078D   24343.91362910  .00020082  00000+0  60656-3 0  9994
2 41887  34.9467 274.1836 0011625 326.8595  33.1393 15.33279677442784
CYGFM08                 
1 41888U 16078E   24343.87967878  .00020900  00000+0  60736-3 0  9992
2 41888  34.9486 260.8444 0012410 351.6210   8.4299 15.34479478442979
CYGFM07                 
1 41890U 16078G   24343.88059520  .00020655  00000+0  59289-3 0  9990
2 41890  34.9493 251.7036 0009544   4.9384 355.1426 15.34898180442979
CYGFM03                 
1 41891U 16078H   24344.12375571  .00020682  00000+0  59643-3 0  9990
2 41891  34.9454 251.4944 0009352 349.9748  10.0782 15.34754045443148
FENGYUN 3D              
1 43010U 17072A   24344.12237448  .00000347  00000+0  18605-3 0  9999
2 43010  98.9367 300.0183 0001435 156.8300 203.2940 14.19516655366236
NOAA 20 (JPSS-1)        
1 43013U 17073A   24344.07199932  .00000285  00000+0  15556-3 0  9995
2 43013  98.7243 279.1723 0002334  74.5220 285.6214 14.19583669365711
GOES 17                 
1 43226U 18022A   24343.85718753 -.00000075  00000+0  00000+0 0  9991
2 43226   0.0450 134.9638 0003468 121.4128  25.6361  1.00271128 24856
FENGYUN 2H              
1 43491U 18050A   24343.89367736 -.00000113  00000+0  00000+0 0  9994
2 43491   1.5953  85.6088 0001268 158.5278 234.9802  1.00273005 23870
METOP-C                 
1 43689U 18087A   24344.12767894  .00000354  00000+0  18200-3 0  9990
2 43689  98.7021  41.1569 0000669   4.1045 356.0138 14.21490052315979
GEO-KOMPSAT-2A          
1 43823U 18100A   24343.97482381 -.00000327  00000+0  00000+0 0  9999
2 43823   0.0515 131.9897 0000544 355.7742  69.6717  1.00271426 22099
METEOR-M2 2             
1 44387U 19038A   24344.18189661  .00000429  00000+0  20619-3 0  9999
2 44387  98.8518 314.3213 0001583 136.7199 223.4103 14.24085787282291
ARKTIKA-M 1             
1 47719U 21016A   24341.22533358  .00000148  00000+0  00000+0 0  9994
2 47719  63.1351 131.6510 7009744 268.4762  17.4646  2.00604882 27593
FENGYUN 3E              
1 49008U 21062A   24344.11990174  .00000130  00000+0  81859-4 0  9999
2 49008  98.7384 343.1144 0000671 216.7341 143.3789 14.19821843177810
GOES 18                 
1 51850U 22021A   24344.16160556  .00000113  00000+0  00000+0 0  9996
2 51850   0.0323 150.0354 0000511 144.4613  65.0827  1.00271698 10246
NOAA 21 (JPSS-2)        
1 54234U 22150A   24343.89850343  .00000324  00000+0  17428-3 0  9997
2 54234  98.7096 279.5927 0001676  33.9970 326.1314 14.19565858107764
METEOSAT-12 (MTG-I1)    
1 54743U 22170C   24343.87786509  .00000010  00000+0  00000+0 0  9990
2 54743   0.6398  44.4043 0001082 191.8922 157.5788  1.00274596  7409
TIANMU-1 03             
1 55973U 23039A   24344.15850363  .00018429  00000+0  66094-3 0  9995
2 55973  97.4823 134.6013 0003693 287.1192  72.9643 15.28757810 95529
TIANMU-1 04             
1 55974U 23039B   24344.12863664  .00018780  00000+0  67029-3 0  9990
2 55974  97.4748 133.9857 0004666 282.4227  77.6490 15.28908630 95511
TIANMU-1 05             
1 55975U 23039C   24344.12599504  .00018063  00000+0  64812-3 0  9991
2 55975  97.4795 134.3893 0003511 310.3253  49.7679 15.28747285 95502
TIANMU-1 06             
1 55976U 23039D   24344.15004742  .00018179  00000+0  64701-3 0  9995
2 55976  97.4809 134.6211 0003945 306.6500  53.4377 15.29010024 95513
METEOR-M2 3             
1 57166U 23091A   24344.15331269  .00000082  00000+0  54987-4 0  9993
2 57166  98.6904  37.0552 0003752 358.8116   1.3053 14.23958890 75524
TIANMU-1 07             
1 57399U 23101A   24344.12656931  .00011034  00000+0  49606-3 0  9996
2 57399  97.3403  36.5934 0003239 309.7821  50.3129 15.21287686 76984
TIANMU-1 08             
1 57400U 23101B   24344.16020738  .00011637  00000+0  52242-3 0  9992
2 57400  97.3394  36.4775 0005540 310.4918  49.5834 15.21316501 76983
TIANMU-1 09             
1 57401U 23101C   24344.14405595  .00011369  00000+0  51107-3 0  9990
2 57401  97.3349  36.1989 0005213 307.7016  52.3746 15.21279069 76984
TIANMU-1 10             
1 57402U 23101D   24344.11135645  .00011926  00000+0  53556-3 0  9993
2 57402  97.3428  36.6249 0007366 303.0429  57.0099 15.21289315 76972
FENGYUN 3F              
1 57490U 23111A   24344.13284639  .00000238  00000+0  13277-3 0  9991
2 57490  98.7517  51.4939 0000531  42.9618 317.1600 14.19953675 70098
ARKTIKA-M 2             
1 58584U 23198A   24342.95575131  .00000151  00000+0  00000+0 0  9999
2 58584  63.2373 215.5516 6915182 269.4921  17.9207  2.00618358  7169
TIANMU-1 11             
1 58645U 23205A   24344.14589445  .00010627  00000+0  51350-3 0  9999
2 58645  97.3903   5.0023 0011509 147.8335 212.3604 15.18754326 53039
TIANMU-1 12             
1 58646U 23205B   24344.09697742  .00010171  00000+0  49250-3 0  9994
2 58646  97.3887   4.8491 0009683 139.7586 220.4367 15.18710274 53013
TIANMU-1 13             
1 58647U 23205C   24344.12977749  .00010320  00000+0  49926-3 0  9993
2 58647  97.3919   4.9428 0010591 122.3898 237.8363 15.18728011 53011
TIANMU-1 14             
1 58648U 23205D   24344.11374204  .00009615  00000+0  46549-3 0  9993
2 58648  97.3845   4.6213 0011120 126.0453 234.1814 15.18719872 53012
TIANMU-1 19             
1 58660U 23208A   24344.09544005  .00013197  00000+0  62405-3 0  9994
2 58660  97.4198  92.6993 0007396 112.3877 247.8142 15.19485707 52683
TIANMU-1 20             
1 58661U 23208B   24344.11084573  .00013473  00000+0  61435-3 0  9996
2 58661  97.4132  92.8040 0010011 123.0547 237.1652 15.20714914 52717
TIANMU-1 21             
1 58662U 23208C   24344.11084695  .00015041  00000+0  65892-3 0  9996
2 58662  97.4171  93.4366 0009566 122.5158 237.7004 15.22068074 52745
TIANMU-1 22             
1 58663U 23208D   24344.09440901  .00012445  00000+0  58505-3 0  9998
2 58663  97.4189  92.7889 0005643 131.4719 228.7001 15.19713508 52697
TIANMU-1 15             
1 58700U 24004A   24343.91164663  .00012009  00000+0  58006-3 0  9995
2 58700  97.4601 162.2625 0009303 149.9021 210.2750 15.18759504 51259
TIANMU-1 16             
1 58701U 24004B   24344.15702020  .00011128  00000+0  53883-3 0  9997
2 58701  97.4531 162.2217 0009457 151.0604 209.1156 15.18689733 51297
TIANMU-1 17             
1 58702U 24004C   24344.14230742  .00011194  00000+0  54109-3 0  9999
2 58702  97.4570 162.4326 0007881 146.1061 214.0678 15.18760620 51283
TIANMU-1 18             
1 58703U 24004D   24344.12506808  .00011824  00000+0  57149-3 0  9994
2 58703  97.4587 162.5260 0007622 138.8909 221.2901 15.18752433 51284
INSAT-3DS               
1 58990U 24033A   24343.89419865 -.00000140  00000+0  00000+0 0  9993
2 58990   0.0161 276.2467 0001637 344.0234 221.8787  1.00269693 41503
METEOR-M2 4             
1 59051U 24039A   24344.16582255  .00000155  00000+0  88942-4 0  9994
2 59051  98.6240 301.9676 0006822 346.5846  13.5149 14.22311566 40364
GOES 19                 
1 60133U 24119A   24343.28840205 -.00000166  00000+0  00000+0 0  9997
2 60133   0.0132  96.2514 0000750 215.6803 139.9561  1.00269870  1733
